{"type": "FeatureCollection", "features": [{"type": "Feature", "properties": {"norad_id": 2807, "name": "OPS 7218 (TRANSIT 16)", "group": "nnss", "lat": -26.218366831311325, "lon": 174.24474750629534, "alt_km": 1074.2998436484158, "timestamp": "2025-12-10T16:57:11.905026+00:00", "meta": {"OBJECT_NAME": "OPS 7218 (TRANSIT 16)", "OBJECT_ID": "1967-048A", "EPOCH": "2025-12-10T11:12:53.544096", "MEAN_MOTION": 13.50721568, "ECCENTRICITY": 0.0021861, "INCLINATION": 89.6732, "RA_OF_ASC_NODE": 354.0916, "ARG_OF_PERICENTER": 120.1596, "MEAN_ANOMALY": 3.7393, "EPHEMERIS_TYPE": 0, "CLASSIFICATION_TYPE": "U", "NORAD_CAT_ID": 2807, "ELEMENT_SET_NO": 999, "REV_AT_EPOCH": 88245, "BSTAR": 0.00020523, "MEAN_MOTION_DOT": 1.43e-06, "MEAN_MOTION_DDOT": 0}, "tle": {"line1": "1 02807U 67048A   25344.46728639  .00000143  00000+0  20523-3 0  9997", "line2": "2 02807  89.6732 354.0916 0021861 120.1596   3.7393 13.50721568882454"}}, "geometry": {"type": "Point", "coordinates": [174.24474750629534, -26.218366831311325]}}, {"type": "Feature", "properties": {"norad_id": 2965, "name": "OPS 4947 (TRANSIT 17)", "group": "nnss", "lat": -70.49893783100792, "lon": -153.28896051551894, "alt_km": 1033.2046758185024, "timestamp": "2025-12-10T16:57:11.905047+00:00", "meta": {"OBJECT_NAME": "OPS 4947 (TRANSIT 17)", "OBJECT_ID": "1967-092A", "EPOCH": "2025-12-10T12:45:19.205856", "MEAN_MOTION": 13.53452631, "ECCENTRICITY": 0.004606, "INCLINATION": 89.2498, "RA_OF_ASC_NODE": 24.6041, "ARG_OF_PERICENTER": 241.1249, "MEAN_ANOMALY": 237.5005, "EPHEMERIS_TYPE": 0, "CLASSIFICATION_TYPE": "U", "NORAD_CAT_ID": 2965, "ELEMENT_SET_NO": 999, "REV_AT_EPOCH": 87067, "BSTAR": 0.00023318, "MEAN_MOTION_DOT": 1.69e-06, "MEAN_MOTION_DDOT": 0}, "tle": {"line1": "1 02965U 67092A   25344.53147229  .00000169  00000+0  23318-3 0  9992", "line2": "2 02965  89.2498  24.6041 0046060 241.1249 237.5005 13.53452631870673"}}, "geometry": {"type": "Point", "coordinates": [-153.28896051551894, -70.49893783100792]}}, {"type": "Feature", "properties": {"norad_id": 3133, "name": "OPS 7034 (TRANSIT 18)", "group": "nnss", "lat": 52.59188501932214, "lon": -86.40324207921857, "alt_km": 1090.7204239202483, "timestamp": "2025-12-10T16:57:11.905061+00:00", "meta": {"OBJECT_NAME": "OPS 7034 (TRANSIT 18)", "OBJECT_ID": "1968-012A", "EPOCH": "2025-12-10T08:23:25.317312", "MEAN_MOTION": 13.51564825, "ECCENTRICITY": 0.0073618, "INCLINATION": 90.0277, "RA_OF_ASC_NODE": 273.632, "ARG_OF_PERICENTER": 176.0655, "MEAN_ANOMALY": 302.3339, "EPHEMERIS_TYPE": 0, "CLASSIFICATION_TYPE": "U", "NORAD_CAT_ID": 3133, "ELEMENT_SET_NO": 999, "REV_AT_EPOCH": 56886, "BSTAR": 0.00025852, "MEAN_MOTION_DOT": 1.81e-06, "MEAN_MOTION_DDOT": 0}, "tle": {"line1": "1 03133U 68012A   25344.34959858  .00000181  00000+0  25852-3 0  9990", "line2": "2 03133  90.0277 273.6320 0073618 176.0655 302.3339 13.51564825568861"}}, "geometry": {"type": "Point", "coordinates": [-86.40324207921857, 52.59188501932214]}}, {"type": "Feature", "properties": {"norad_id": 4507, "name": "NNSS 19 (TRANSIT 19)", "group": "nnss", "lat": 28.530012731006433, "lon": -125.47069138464514, "alt_km": 1062.3980051954568, "timestamp": "2025-12-10T16:57:11.905073+00:00", "meta": {"OBJECT_NAME": "NNSS 19 (TRANSIT 19)", "OBJECT_ID": "1970-067A", "EPOCH": "2025-12-10T06:09:04.713984", "MEAN_MOTION": 13.51314209, "ECCENTRICITY": 0.0170695, "INCLINATION": 90.0056, "RA_OF_ASC_NODE": 234.5321, "ARG_OF_PERICENTER": 300.6377, "MEAN_ANOMALY": 57.8039, "EPHEMERIS_TYPE": 0, "CLASSIFICATION_TYPE": "U", "NORAD_CAT_ID": 4507, "ELEMENT_SET_NO": 999, "REV_AT_EPOCH": 72188, "BSTAR": 0.00026981, "MEAN_MOTION_DOT": 1.99e-06, "MEAN_MOTION_DDOT": 0}, "tle": {"line1": "1 04507U 70067A   25344.25630456  .00000199  00000+0  26981-3 0  9992", "line2": "2 04507  90.0056 234.5321 0170695 300.6377  57.8039 13.51314209721889"}}, "geometry": {"type": "Point", "coordinates": [-125.47069138464514, 28.530012731006433]}}, {"type": "Feature", "properties": {"norad_id": 6909, "name": "NNSS 20 (TRANSIT 20)", "group": "nnss", "lat": -49.13325387323521, "lon": -105.08161812702205, "alt_km": 1079.7145628439757, "timestamp": "2025-12-10T16:57:11.905084+00:00", "meta": {"OBJECT_NAME": "NNSS 20 (TRANSIT 20)", "OBJECT_ID": "1973-081A", "EPOCH": "2025-12-10T06:41:18.269088", "MEAN_MOTION": 13.71432468, "ECCENTRICITY": 0.0156615, "INCLINATION": 89.8563, "RA_OF_ASC_NODE": 255.091, "ARG_OF_PERICENTER": 85.6012, "MEAN_ANOMALY": 276.3026, "EPHEMERIS_TYPE": 0, "CLASSIFICATION_TYPE": "U", "NORAD_CAT_ID": 6909, "ELEMENT_SET_NO": 999, "REV_AT_EPOCH": 80327, "BSTAR": 0.00033624, "MEAN_MOTION_DOT": 3.42e-06, "MEAN_MOTION_DDOT": 0}, "tle": {"line1": "1 06909U 73081A   25344.27868367  .00000342  00000+0  33624-3 0  9997", "line2": "2 06909  89.8563 255.0910 0156615  85.6012 276.3026 13.71432468803278"}}, "geometry": {"type": "Point", "coordinates": [-105.08161812702205, -49.13325387323521]}}, {"type": "Feature", "properties": {"norad_id": 10457, "name": "TRANSAT", "group": "nnss", "lat": 48.756602327262584, "lon": 79.07059470938377, "alt_km": 1087.4618054065386, "timestamp": "2025-12-10T16:57:11.905094+00:00", "meta": {"OBJECT_NAME": "TRANSAT", "OBJECT_ID": "1977-106A", "EPOCH": "2025-12-10T08:08:02.573088", "MEAN_MOTION": 13.48943113, "ECCENTRICITY": 0.0025164, "INCLINATION": 89.6481, "RA_OF_ASC_NODE": 78.682, "ARG_OF_PERICENTER": 196.5115, "MEAN_ANOMALY": 229.0335, "EPHEMERIS_TYPE": 0, "CLASSIFICATION_TYPE": "U", "NORAD_CAT_ID": 10457, "ELEMENT_SET_NO": 999, "REV_AT_EPOCH": 36711, "BSTAR": 0.00020017, "MEAN_MOTION_DOT": 1.36e-06, "MEAN_MOTION_DDOT": 0}, "tle": {"line1": "1 10457U 77106A   25344.33891867  .00000136  00000+0  20017-3 0  9993", "line2": "2 10457  89.6481  78.6820 0025164 196.5115 229.0335 13.48943113367111"}}, "geometry": {"type": "Point", "coordinates": [79.07059470938377, 48.756602327262584]}}, {"type": "Feature", "properties": {"norad_id": 12458, "name": "NOVA 1", "group": "nnss", "lat": 41.698440062923176, "lon": -88.71770974797346, "alt_km": 1158.4314858276566, "timestamp": "2025-12-10T16:57:11.905105+00:00", "meta": {"OBJECT_NAME": "NOVA 1", "OBJECT_ID": "1981-044A", "EPOCH": "2025-12-10T07:15:46.976256", "MEAN_MOTION": 13.23278143, "ECCENTRICITY": 0.0015859, "INCLINATION": 89.8524, "RA_OF_ASC_NODE": 91.4196, "ARG_OF_PERICENTER": 109.9742, "MEAN_ANOMALY": 265.8367, "EPHEMERIS_TYPE": 0, "CLASSIFICATION_TYPE": "U", "NORAD_CAT_ID": 12458, "ELEMENT_SET_NO": 999, "REV_AT_EPOCH": 15154, "BSTAR": 0.00018395, "MEAN_MOTION_DOT": 8.7e-07, "MEAN_MOTION_DDOT": 0}, "tle": {"line1": "1 12458U 81044A   25344.30262704  .00000087  00000+0  18395-3 0  9992", "line2": "2 12458  89.8524  91.4196 0015859 109.9742 265.8367 13.23278143151545"}}, "geometry": {"type": "Point", "coordinates": [-88.71770974797346, 41.698440062923176]}}, {"type": "Feature", "properties": {"norad_id": 15362, "name": "NOVA 3", "group": "nnss", "lat": 12.619030526885412, "lon": 80.48340512806122, "alt_km": 1155.2539268166847, "timestamp": "2025-12-10T16:57:11.905115+00:00", "meta": {"OBJECT_NAME": "NOVA 3", "OBJECT_ID": "1984-110A", "EPOCH": "2025-12-10T08:08:18.361824", "MEAN_MOTION": 13.23044241, "ECCENTRICITY": 0.003067, "INCLINATION": 90.1224, "RA_OF_ASC_NODE": 80.5065, "ARG_OF_PERICENTER": 338.7518, "MEAN_ANOMALY": 85.4174, "EPHEMERIS_TYPE": 0, "CLASSIFICATION_TYPE": "U", "NORAD_CAT_ID": 15362, "ELEMENT_SET_NO": 999, "REV_AT_EPOCH": 98667, "BSTAR": 0.00022499, "MEAN_MOTION_DOT": 1.03e-06, "MEAN_MOTION_DDOT": 0}, "tle": {"line1": "1 15362U 84110A   25344.33910141  .00000103  00000+0  22499-3 0  9993", "line2": "2 15362  90.1224  80.5065 0030670 338.7518  85.4174 13.23044241986671"}}, "geometry": {"type": "Point", "coordinates": [80.48340512806122, 12.619030526885412]}}, {"type": "Feature", "properties": {"norad_id": 15935, "name": "OSCAR 30", "group": "nnss", "lat": -4.029062037887848, "lon": 99.82540722671864, "alt_km": 1132.9447551239246, "timestamp": "2025-12-10T16:57:11.905125+00:00", "meta": {"OBJECT_NAME": "OSCAR 30", "OBJECT_ID": "1985-066A", "EPOCH": "2025-12-10T08:15:08.805024", "MEAN_MOTION": 13.36077839, "ECCENTRICITY": 0.0169417, "INCLINATION": 90.1649, "RA_OF_ASC_NODE": 99.8079, "ARG_OF_PERICENTER": 90.5911, "MEAN_ANOMALY": 324.703, "EPHEMERIS_TYPE": 0, "CLASSIFICATION_TYPE": "U", "NORAD_CAT_ID": 15935, "ELEMENT_SET_NO": 999, "REV_AT_EPOCH": 96421, "BSTAR": 0.00026577, "MEAN_MOTION_DOT": 1.58e-06, "MEAN_MOTION_DDOT": 0}, "tle": {"line1": "1 15935U 85066A   25344.34385191  .00000158  00000+0  26577-3 0  9993", "line2": "2 15935  90.1649  99.8079 0169417  90.5911 324.7030 13.36077839964217"}}, "geometry": {"type": "Point", "coordinates": [99.82540722671864, -4.029062037887848]}}, {"type": "Feature", "properties": {"norad_id": 15936, "name": "OSCAR 24", "group": "nnss", "lat": 73.64347312643365, "lon": 91.65946567244951, "alt_km": 998.8660751880052, "timestamp": "2025-12-10T16:57:11.905136+00:00", "meta": {"OBJECT_NAME": "OSCAR 24", "OBJECT_ID": "1985-066B", "EPOCH": "2025-12-10T09:44:11.901120", "MEAN_MOTION": 13.35935343, "ECCENTRICITY": 0.0170484, "INCLINATION": 90.1789, "RA_OF_ASC_NODE": 92.2641, "ARG_OF_PERICENTER": 96.8536, "MEAN_ANOMALY": 332.2522, "EPHEMERIS_TYPE": 0, "CLASSIFICATION_TYPE": "U", "NORAD_CAT_ID": 15936, "ELEMENT_SET_NO": 999, "REV_AT_EPOCH": 96612, "BSTAR": 0.00022873, "MEAN_MOTION_DOT": 1.37e-06, "MEAN_MOTION_DDOT": 0}, "tle": {"line1": "1 15936U 85066B   25344.40569330  .00000137  00000+0  22873-3 0  9992", "line2": "2 15936  90.1789  92.2641 0170484  96.8536 332.2522 13.35935343966127"}}, "geometry": {"type": "Point", "coordinates": [91.65946567244951, 73.64347312643365]}}]}